ONEWEB-0492             
1 54114U 22138B   25204.49406628  .00000085  00000+0  18057-3 0  9999
2 54114  87.9219  10.3123 0001875  85.8589 274.2758 13.19724186133483
ONEWEB-0495             
1 54115U 22138C   25204.47193915  .00000099  00000+0  21597-3 0  9998
2 54115  87.9220  10.3279 0002523  86.1213 274.0208 13.19731473133460
ONEWEB-0497             
1 54116U 22138D   25204.48458306  .00002980  00000+0  74104-2 0  9990
2 54116  87.9222  10.2967 0001596  84.3731 275.7583 13.19712672133453
ONEWEB-0499             
1 54117U 22138E   25204.46721530  .00000031  00000+0  45817-4 0  9997
2 54117  87.9222  10.3191 0002106  99.4752 260.6619 13.19724748133463
ONEWEB-0500             
1 54118U 22138F   25204.47036408  .00000071  00000+0  14616-3 0  9998
2 54118  87.9224  10.3026 0001804  90.7235 269.4105 13.19725642133479
ONEWEB-0501             
1 54119U 22138G   25204.50038265  .00000067  00000+0  13616-3 0  9990
2 54119  87.9223  10.2896 0002257  90.6518 269.4874 13.19724675133455
ONEWEB-0502             
1 54120U 22138H   25204.48616480  .00000094  00000+0  20313-3 0  9992
2 54120  87.9221  10.2761 0002118  94.4956 265.6419 13.19724753133472
ONEWEB-0503             
1 54121U 22138J   25204.47510279  .00000117  00000+0  25878-3 0  9998
2 54121  87.9220  10.2831 0001880 102.6012 257.5331 13.19726297133467
